STARLINK-35092          
1 65342U 25189V   26165.59448034  .00019824  00000+0  64908-3 0  9995
2 65342  53.1596 115.9041 0001337  67.2171 292.8972 15.31689869 45868
STARLINK-34838          
1 65343U 25189W   26165.17113920  .00018727  00000+0  64252-3 0  9996
2 65343  53.1583 118.9350 0001204  85.5774 274.5365 15.30214411 45887
STARLINK-35088          
1 65344U 25189X   26165.16376170  .00016921  00000+0  58221-3 0  9997
2 65344  53.1582 118.8975 0001399  90.5395 269.5766 15.30195119 45881
STARLINK-34831          
1 65345U 25189Y   26165.56688214  .00029111  00000+0  94577-3 0  9996
2 65345  53.1575 116.4348 0001355  85.0520 275.0636 15.31714538 45952
STARLINK-34873          
1 65346U 25189Z   26165.56714696  .00015932  00000+0  54935-3 0  9991
2 65346  53.1583 116.4355 0001497  78.2813 281.8356 15.30172059 45955
STARLINK-34881          
1 65347U 25189AA  26165.42671466  .00016883  00000+0  55438-3 0  9999
2 65347  53.1565 116.9854 0001273  91.6145 268.5002 15.31711859 45929
STARLINK-34859          
1 65348U 25189AB  26165.15425153  .00010425  00000+0  36379-3 0  9999
2 65348  53.1577 118.8358 0000980  88.0313 272.0800 15.30182364 45876
STARLINK-34895          
1 65349U 25189AC  26165.15637706  .00026101  00000+0  84961-3 0  9997
2 65349  53.1581 118.1421 0001512  90.2368 269.8807 15.31711408 45849
STARLINK-34892          
1 65350U 25189AD  26165.59912888  .00024219  00000+0  78943-3 0  9995
2 65350  53.1594 115.9261 0001516  98.8641 261.2532 15.31710393 45904
STARLINK-34244          
1 65351U 25190A   26165.05601860  .00033976  00000+0  10124-2 0  9990
2 65351  53.1583  79.5791 0001352 106.3053 253.8098 15.34393144 44521
STARLINK-34716          
1 65352U 25190B   26165.08512465  .00031921  00000+0  10856-2 0  9996
2 65352  53.1611  80.4473 0001253  31.2175 328.8900 15.30191183 44512
STARLINK-34828          
1 65353U 25190C   26165.45063049  .00024229  00000+0  82744-3 0  9996
2 65353  53.1584  78.4580 0001089 107.9891 252.1228 15.30201761 44573
STARLINK-34785          
1 65354U 25190D   26165.48260484  .00014340  00000+0  43438-3 0  9992
2 65354  53.1617  77.9525 0001919  90.2516 269.8706 15.34425682 44114
STARLINK-34823          
1 65355U 25190E   26165.01030868  .00029914  00000+0  10177-2 0  9999
2 65355  53.1601  80.6877 0001933 152.1369 207.9735 15.30208850 44509
STARLINK-34680          
1 65356U 25190F   26165.04830288  .00018368  00000+0  63083-3 0  9993
2 65356  53.1590  80.9201 0001134  83.7834 276.3296 15.30196669 44034
STARLINK-34860          
1 65357U 25190G   26164.97837111  .00058569  00000+0  17323-2 0  9999
2 65357  53.1597  80.4901 0001653  54.5716 305.5441 15.34376911 44036
STARLINK-34782          
1 65358U 25190H   26165.05345799  .00024035  00000+0  82088-3 0  9998
2 65358  53.1587  80.2482 0001169  98.0891 262.0243 15.30205122 44518
STARLINK-34760          
1 65359U 25190J   26165.45696345  .00019920  00000+0  68289-3 0  9993
2 65359  53.1586  78.4925 0001149  94.4577 265.6555 15.30199800 44103
STARLINK-34826          
1 65360U 25190K   26165.45945689  .00023379  00000+0  70071-3 0  9998
2 65360  53.1587  77.8076 0000971  77.0066 283.1045 15.34409736 44114
STARLINK-34800          
1 65361U 25190L   26165.05240919  .00023018  00000+0  78699-3 0  9993
2 65361  53.1593  80.2355 0001202  85.8307 274.2831 15.30195722 44042
STARLINK-34817          
1 65362U 25190M   26165.44893527  .00029650  00000+0  88508-3 0  9994
2 65362  53.1587  77.7384 0001032 105.4541 254.6576 15.34405007 44580
STARLINK-34797          
1 65363U 25190N   26165.49312367  .00028821  00000+0  86094-3 0  9995
2 65363  53.1611  78.0178 0001310  62.9941 297.1195 15.34396809 44582
STARLINK-34729          
1 65364U 25190P   26165.07880161  .00021983  00000+0  75245-3 0  9990
2 65364  53.1602  80.4020 0002067  49.5622 310.5559 15.30186587 44932
STARLINK-34710          
1 65365U 25190Q   26165.04936016  .00020468  00000+0  70150-3 0  9996
2 65365  53.1593  80.9298 0001236  76.5442 283.5696 15.30189886 44038
STARLINK-34943          
1 65366U 25190R   26165.03927258  .00021236  00000+0  63819-3 0  9992
2 65366  53.1608  80.1610 0001320 106.6263 253.4885 15.34383776 44041
STARLINK-34946          
1 65367U 25190S   26165.48681146  .00020392  00000+0  61317-3 0  9998
2 65367  53.1612  77.9727 0001171  87.1488 272.9649 15.34391961 44584
STARLINK-34259          
1 65368U 25190T   26165.02454337  .00030879  00000+0  92156-3 0  9995
2 65368  53.1616  80.0680 0001453 105.3796 254.7367 15.34390016 44518
STARLINK-34913          
1 65369U 25190U   26165.04979114  .00024143  00000+0  72352-3 0  9996
2 65369  53.1604  80.2234 0000700  58.1067 302.0004 15.34394100 44516
STARLINK-34870          
1 65370U 25190V   26165.07984925  .00021613  00000+0  73988-3 0  9992
2 65370  53.1600  80.4127 0001670 150.9140 209.1954 15.30192621 44046
STARLINK-34869          
1 65371U 25190W   26165.01664051  .00019720  00000+0  67585-3 0  9994
2 65371  53.1610  80.7219 0001324 133.0013 227.1099 15.30215496 44507
