OBJECT_NAME,OBJECT_ID,EPOCH,MEAN_MOTION,ECCENTRICITY,INCLINATION,RA_OF_ASC_NODE,ARG_OF_PERICENTER,MEAN_ANOMALY,EPHEMERIS_TYPE,CLASSIFICATION_TYPE,NORAD_CAT_ID,ELEMENT_SET_NO,REV_AT_EPOCH,BSTAR,MEAN_MOTION_DOT,MEAN_MOTION_DDOT
STARLINK-35092,2025-189V,2026-06-14T14:16:03.101376,15.31689869,.00013371,53.1596,115.9041,67.2171,292.8972,0,U,65342,999,4586,.64907672E-3,.19824E-3,0
STARLINK-34838,2025-189W,2026-06-14T04:06:26.426880,15.30214411,.00012044,53.1583,118.9350,85.5774,274.5365,0,U,65343,999,4588,.64251637E-3,.18727E-3,0
STARLINK-35088,2025-189X,2026-06-14T03:55:49.010880,15.30195119,.00013992,53.1582,118.8975,90.5395,269.5766,0,U,65344,999,4588,.58220632E-3,.16921E-3,0
STARLINK-34831,2025-189Y,2026-06-14T13:36:18.616896,15.31714538,.00013554,53.1575,116.4348,85.0520,275.0636,0,U,65345,999,4595,.94576983E-3,.29111E-3,0
STARLINK-34873,2025-189Z,2026-06-14T13:36:41.497344,15.30172059,.00014978,53.1583,116.4355,78.2813,281.8356,0,U,65346,999,4595,.54934581E-3,.15932E-3,0
STARLINK-34881,2025-189AA,2026-06-14T10:14:28.146624,15.31711859,.00012732,53.1565,116.9854,91.6145,268.5002,0,U,65347,999,4592,.55438332E-3,.16883E-3,0
STARLINK-34859,2025-189AB,2026-06-14T03:42:07.332192,15.30182364,.00009805,53.1577,118.8358,88.0313,272.0800,0,U,65348,999,4587,.36378813E-3,.10425E-3,0
STARLINK-34895,2025-189AC,2026-06-14T03:45:10.977984,15.31711408,.00015122,53.1581,118.1421,90.2368,269.8807,0,U,65349,999,4584,.84961238E-3,.26101E-3,0
STARLINK-34892,2025-189AD,2026-06-14T14:22:44.735232,15.31710393,.0001516,53.1594,115.9261,98.8641,261.2532,0,U,65350,999,4590,.7894318E-3,.24219E-3,0
STARLINK-34244,2025-190A,2026-06-14T01:20:40.007040,15.34393144,.00013527,53.1583,79.5791,106.3053,253.8098,0,U,65351,999,4452,.10123794E-2,.33976E-3,0
STARLINK-34716,2025-190B,2026-06-14T02:02:34.769760,15.30191183,.00012537,53.1611,80.4473,31.2175,328.8900,0,U,65352,999,4451,.1085553E-2,.31921E-3,0
STARLINK-34828,2025-190C,2026-06-14T10:48:54.474336,15.30201761,.00010896,53.1584,78.4580,107.9891,252.1228,0,U,65353,999,4457,.82744489E-3,.24229E-3,0
STARLINK-34785,2025-190D,2026-06-14T11:34:57.058176,15.34425682,.00019192,53.1617,77.9525,90.2516,269.8706,0,U,65354,999,4411,.43438012E-3,.1434E-3,0
STARLINK-34823,2025-190E,2026-06-14T00:14:50.669952,15.30208850,.00019331,53.1601,80.6877,152.1369,207.9735,0,U,65355,999,4450,.10177435E-2,.29914E-3,0
STARLINK-34680,2025-190F,2026-06-14T01:09:33.368832,15.30196669,.00011341,53.1590,80.9201,83.7834,276.3296,0,U,65356,999,4403,.63082513E-3,.18368E-3,0
STARLINK-34860,2025-190G,2026-06-13T23:28:51.263904,15.34376911,.00016538,53.1597,80.4901,54.5716,305.5441,0,U,65357,999,4403,.17323297E-2,.58569E-3,0
STARLINK-34782,2025-190H,2026-06-14T01:16:58.770336,15.30205122,.00011696,53.1587,80.2482,98.0891,262.0243,0,U,65358,999,4451,.82088076E-3,.24035E-3,0
STARLINK-34760,2025-190J,2026-06-14T10:58:01.642080,15.30199800,.00011494,53.1586,78.4925,94.4577,265.6555,0,U,65359,999,4410,.68288706E-3,.1992E-3,0
STARLINK-34826,2025-190K,2026-06-14T11:01:37.075296,15.34409736,.00009711,53.1587,77.8076,77.0066,283.1045,0,U,65360,999,4411,.70070731E-3,.23379E-3,0
STARLINK-34800,2025-190L,2026-06-14T01:15:28.154016,15.30195722,.00012023,53.1593,80.2355,85.8307,274.2831,0,U,65361,999,4404,.78698701E-3,.23018E-3,0
STARLINK-34817,2025-190M,2026-06-14T10:46:28.007328,15.34405007,.00010324,53.1587,77.7384,105.4541,254.6576,0,U,65362,999,4458,.88507524E-3,.2965E-3,0
STARLINK-34797,2025-190N,2026-06-14T11:50:05.885088,15.34396809,.00013103,53.1611,78.0178,62.9941,297.1195,0,U,65363,999,4458,.86094156E-3,.28821E-3,0
STARLINK-34729,2025-190P,2026-06-14T01:53:28.459104,15.30186587,.00020674,53.1602,80.4020,49.5622,310.5559,0,U,65364,999,4493,.75244623E-3,.21983E-3,0
STARLINK-34710,2025-190Q,2026-06-14T01:11:04.717824,15.30189886,.00012367,53.1593,80.9298,76.5442,283.5696,0,U,65365,999,4403,.70150154E-3,.20468E-3,0
STARLINK-34943,2025-190R,2026-06-14T00:56:33.150912,15.34383776,.00013205,53.1608,80.1610,106.6263,253.4885,0,U,65366,999,4404,.63818686E-3,.21236E-3,0
STARLINK-34946,2025-190S,2026-06-14T11:41:00.510144,15.34391961,.00011711,53.1612,77.9727,87.1488,272.9649,0,U,65367,999,4458,.6131666E-3,.20392E-3,0
STARLINK-34259,2025-190T,2026-06-14T00:35:20.547168,15.34390016,.00014532,53.1616,80.0680,105.3796,254.7367,0,U,65368,999,4451,.92156447E-3,.30879E-3,0
STARLINK-34913,2025-190U,2026-06-14T01:11:41.954496,15.34394100,.00007004,53.1604,80.2234,58.1067,302.0004,0,U,65369,999,4451,.72352203E-3,.24143E-3,0
STARLINK-34870,2025-190V,2026-06-14T01:54:58.975200,15.30192621,.00016701,53.1600,80.4127,150.9140,209.1954,0,U,65370,999,4404,.7398778E-3,.21613E-3,0
STARLINK-34869,2025-190W,2026-06-14T00:23:57.740064,15.30215496,.00013241,53.1610,80.7219,133.0013,227.1099,0,U,65371,999,4450,.67584799E-3,.1972E-3,0
